id,name,country,region,wmo,icao,latitude,longitude,elevation,timezone,hourly_start,hourly_end,daily_start,daily_end,monthly_start,monthly_end,distance
KRYM0,Ray S Miller Aaf / Camp Ripley Junction,US,MN,,KRYM,46.0912,-94.3605,351.0,America/Chicago,2012-07-13,2023-07-31,2014-02-02,2022-04-24,,,14460.33033400238
KBRD0,Brainerd / Lazy Acre's Trailer Court,US,MN,,KBRD,46.4017,-94.1356,376.0,America/Chicago,2006-01-01,2023-07-31,2006-01-01,2022-04-24,2006-01-01,2022-01-01,25578.34020551761
KLXL0,Little Falls / Gregory,US,MN,,KLXL,45.9494,-94.3471,342.0,America/Chicago,2006-01-01,2023-07-31,2006-01-01,2022-04-24,2007-01-01,2022-01-01,27343.076330378986
KSAZ0,Staples,US,MN,,KSAZ,46.3809,-94.8066,393.0,America/Chicago,2006-01-01,2023-07-31,2006-01-01,2022-04-24,2006-01-01,2022-01-01,50113.474420545615
KAIT0,Aitkin / Welshons Company Mobile Home Park,US,MN,,KAIT,46.5484,-93.6768,368.0,America/Chicago,2006-01-01,2023-07-31,2006-01-01,2022-04-24,2009-01-01,2022-01-01,58628.18921875331
LVKGQ,Todd Field Airport,US,MN,,K14Y,45.9017,-94.8727,406.0,America/Chicago,2022-05-06,2023-07-31,,,,,58908.233119594326
KPWC0,Pine River,US,MN,,KPWC,46.7248,-94.3817,395.0,America/Chicago,2006-01-01,2023-07-31,2006-01-01,2022-04-24,2006-01-01,2022-01-01,61813.3837002143
72655,Saint Cloud / St Cloud / Cable,US,MN,72655,KSTC,45.5466,-94.0599,314.0,America/Chicago,1973-01-01,2023-07-31,1904-09-01,2023-07-23,1904-01-01,2022-01-01,71527.51773682906
KD390,Sauk Centre,US,MN,,KD39,45.7066,-94.9334,379.0,America/Chicago,2020-01-14,2023-07-31,2020-01-14,2022-04-24,2020-01-01,2022-01-01,76056.84099635953
KJMR0,Mora,US,MN,,KJMR,45.8861,-93.2718,308.0,America/Chicago,2006-01-01,2023-07-31,2006-01-01,2022-04-24,2006-01-01,2022-01-01,80365.36119990873
KADC0,Wadena / West Wind Estates,US,MN,,KADC,46.4503,-95.211,417.0,America/Chicago,2006-01-01,2023-07-31,2006-01-01,2022-04-24,2006-01-01,2022-01-01,81621.04330834157
KPNM0,Princeton / Princetown [Misspelling],US,MN,,KPNM,45.5599,-93.6082,299.0,America/Chicago,2006-01-01,2023-07-31,2006-01-01,2022-04-24,2006-01-01,2022-01-01,83765.41597372151
KHZX0,McGregor,US,MN,,KHZX,46.6188,-93.3098,374.0,America/Chicago,2006-01-01,2023-07-31,2006-01-01,2022-04-24,2007-01-01,2022-01-01,85367.95845690789
KXVG0,Longville,US,MN,,KXVG,47.0,-94.2,407.0,America/Chicago,2006-01-01,2023-07-31,2006-01-02,2022-04-06,2008-01-01,2022-01-01,91224.7675489365
KAXN0,Alexandria / Mobile Park Estates,US,MN,,KAXN,45.8663,-95.3947,434.0,America/Chicago,1973-01-01,2023-07-31,1973-01-01,2022-04-24,1999-01-01,2022-01-01,96943.69905102001
KPEX0,Paynesville,US,MN,,KPEX,45.3721,-94.7447,361.0,America/Chicago,2005-08-12,2023-07-31,2005-08-13,2022-04-24,2011-01-01,2022-01-01,98497.4550413293
KCBG0,Cambridge / Pine Village Mobile Home Park,US,MN,,KCBG,45.5575,-93.2642,288.0,America/Chicago,2006-01-01,2023-07-31,2006-01-01,2022-04-20,2007-01-01,2022-01-01,101482.59330541389
KPKD0,Park Rapids,US,MN,,KPKD,46.9007,-95.0731,440.0,America/Chicago,1990-01-11,2023-07-31,1995-07-05,2022-04-24,1998-01-01,2022-01-01,103214.86352911257
JY95F,Hinckley Field Of Dreams Airport,US,MN,,K04W,46.0244,-92.8991,311.0,America/Chicago,2022-05-06,2023-07-31,,,,,103527.04981459529
KGHW0,Glenwood / Pine Hill Park,US,MN,,KGHW,45.6439,-95.3204,425.0,America/Chicago,2006-01-01,2023-07-31,2006-01-01,2022-04-15,2006-01-01,2022-01-01,103717.25052678536
KMGG0,Maple Lake,US,MN,,KMGG,45.236000000000004,-93.9856,313.0,America/Chicago,2006-01-01,2023-07-31,2006-01-01,2022-04-24,2007-01-01,2021-01-01,106547.50954786252
KROS0,Rush City / Stenger's Mobile Home Park,US,MN,,KROS,45.6971,-92.9522,282.0,America/Chicago,2006-01-01,2023-07-31,2006-01-01,2022-04-24,2006-01-01,2022-01-01,111970.99149732386
KMZH0,Moose Lake,US,MN,,KMZH,46.4186,-92.8048,328.0,America/Chicago,2006-01-01,2023-07-31,2006-01-01,2022-04-24,2006-01-01,2022-01-01,112144.56695814613
KY490,Walker / Benedict,US,MN,,KY49,47.1596,-94.6454,411.0,America/Chicago,2020-01-14,2023-07-31,2020-01-14,2022-04-25,2020-01-01,2022-01-01,113619.76515125902
KCFE0,Buffalo / Buffalo Manor East,US,MN,,KCFE,45.1592,-93.8433,295.0,America/Chicago,2005-01-01,2023-07-31,2005-01-01,2022-04-24,2007-01-01,2022-01-01,117253.23956469043
KLJF0,Litchfield / Evergreen Mobile Home Park,US,MN,,KLJF,45.1,-94.5,347.0,America/Chicago,2006-01-01,2023-07-31,2006-01-01,2022-04-24,2007-01-01,2022-01-01,121977.58921014128
KGPZ0,Grand Rapids / Country Acres Mobile Home Park,US,MN,,KGPZ,47.2093,-93.5099,413.0,America/Chicago,2006-01-01,2023-07-31,2006-01-01,2022-04-24,2006-01-01,2022-01-01,126743.21231801175
KBDH0,Willmar / Parkwood Estates,US,MN,,KBDH,45.117,-95.1293,343.0,America/Chicago,2007-07-24,2023-07-31,2007-07-25,2022-04-24,2009-01-01,2022-01-01,137573.1995634292
KY630,Elbow Lake,US,MN,,KY63,45.9861,-95.992,368.0,America/Chicago,2014-07-31,2023-07-31,2014-08-01,2022-04-25,2020-01-01,2022-01-01,138118.20696722376
9NRIJ,Minneapolis / Blaine,US,MN,,KANE,45.1426,-93.2127,278.0,America/Chicago,2022-04-23,2023-07-31,2022-04-24,2022-04-26,,,139515.2404973502
KMIC0,Minneapolis / Brooklyn Center,US,MN,,KMIC,45.062,-93.3539,265.0,America/Chicago,2006-01-01,2023-07-31,2006-01-01,2022-04-24,2006-01-01,2021-01-01,141477.52876866958
KCOQ0,Cloquet,US,MN,,KCOQ,46.7011,-92.5036,390.0,America/Chicago,2006-01-01,2023-07-31,2006-01-01,2022-04-24,2007-01-01,2022-01-01,143939.7948917419
KBBB0,Benson,US,MN,,KBBB,45.3319,-95.6506,317.0,America/Chicago,2006-01-01,2023-07-31,2006-01-01,2022-04-24,2006-01-01,2022-01-01,145440.3772832792
KDTL0,Detroit Lakes / Richards,US,MN,,KDTL,46.8252,-95.8856,426.0,America/Chicago,2006-01-01,2023-07-31,2006-01-01,2022-04-24,2006-01-01,2022-01-01,146087.93182640543
KHCD0,Hutchinson / Heatwole,US,MN,,KHCD,44.8599,-94.3825,324.0,America/Chicago,2006-01-01,2023-07-31,2006-01-01,2022-04-24,2006-01-01,2022-01-01,147285.1917504076
KRZN0,Siren,US,WI,,KRZN,45.8227,-92.3725,302.0,America/Chicago,2006-01-02,2023-07-31,2006-12-14,2022-04-24,2007-01-01,2022-01-01,148345.88471912078
KFFM0,Fergus Falls / French,US,MN,,KFFM,46.2844,-96.1567,361.0,America/Chicago,2005-01-01,2023-07-31,2005-01-01,2022-04-24,2008-01-01,2022-01-01,149182.31630834218
KMOX0,Morris,US,MN,,KMOX,45.566,-95.9672,346.0,America/Chicago,2006-01-01,2023-07-31,2006-01-01,2022-04-24,2006-01-01,2022-01-01,151292.42791513633
KOEO0,Osceola,US,WI,,KOEO,45.3095,-92.69,276.0,America/Chicago,2006-01-01,2023-07-31,2006-01-01,2022-04-24,2006-01-01,2022-01-01,153344.24147800962
72755,Bemidji,US,MN,72755,KBJI,47.5,-94.9333,423.0,America/Chicago,2006-01-01,2023-07-31,1896-02-01,2023-07-23,1896-01-01,2022-01-01,156427.53955067048
KGYL0,Glencoe / Plato,US,MN,,KGYL,44.756,-94.0812,303.0,America/Chicago,2006-01-01,2023-07-31,2006-01-02,2022-04-24,2006-01-01,2022-01-01,158699.61774685647
KFCM0,Minneapolis / Eden Prairie,US,MN,,KFCM,44.8275,-93.4586,276.0,America/Chicago,2006-01-01,2023-07-31,2006-01-02,2022-04-24,2006-01-01,2022-01-01,161733.49691824455
KSTP0,Saint Paul,US,MN,,KSTP,44.9346,-93.0603,215.0,America/Chicago,1983-11-03,2023-07-31,1991-12-16,2022-04-24,2005-01-01,2022-01-01,165420.3241931824
KOVL0,Olivia,US,MN,,KOVL,44.7786,-95.0328,328.0,America/Chicago,2006-01-01,2023-07-31,2006-01-01,2022-04-24,2006-01-01,2022-01-01,168103.2978589741
TIH4U,Lake Elmo Airport,US,MN,,K21D,45.0002,-92.8549,285.0,America/Chicago,2022-05-06,2023-07-31,,,,,168922.4924992941
72745,Duluth International Airport,US,MN,72745,KDLH,46.8333,-92.2167,435.0,America/Chicago,1948-01-01,2023-07-31,1948-01-01,2023-07-23,1948-01-01,2022-01-01,169872.9024736694
KHIB0,Hibbing-Chisholm / Wilpen,US,MN,,KHIB,47.3866,-92.839,413.0,America/Chicago,1973-01-01,2023-07-31,1973-01-01,2022-04-24,1973-01-01,2022-01-01,170623.52653414969
72658,Minneapolis-St Paul International,US,MN,72658,KMSP,44.8667,-93.05,256.0,America/Chicago,1945-01-01,2023-07-31,1938-04-09,2023-07-23,1938-01-01,2022-01-01,172242.0642022539
KSUW0,Superior / South Superior,US,WI,,KSUW,46.6897,-92.0947,205.0,America/Chicago,2006-01-01,2023-07-31,2006-01-01,2022-04-24,2007-01-01,2022-01-01,172672.16047405606
KSGS0,Saint Paul / Inver Grove Heights,US,MN,,KSGS,44.8571,-93.0329,250.0,America/Chicago,2006-01-01,2023-07-31,2006-01-01,2022-04-24,2006-01-01,2022-01-01,173858.66463949758
KRNH0,New Richmond / Woodbridge Trailer Court,US,WI,,KRNH,45.1478,-92.5392,304.0,America/Chicago,2006-01-01,2023-07-31,2006-01-02,2022-04-24,2007-01-01,2022-01-01,174031.89485566368
KAQP0,Appleton,US,MN,,KAQP,45.2275,-96.0043,311.0,America/Chicago,2006-01-01,2023-07-31,2006-01-01,2022-04-24,2007-01-01,2022-01-01,174190.18348514778
5KQCG,Mahnomen County Airport,US,MN,,K3N8,47.2605,-95.9281,383.0,America/Chicago,2022-05-06,2023-07-31,,,,,177011.29155159893
KDYT0,Duluth / East End,US,MN,,KDYT,46.7219,-92.0434,186.0,America/Chicago,2006-01-01,2023-07-31,2006-01-01,2022-04-24,2010-01-01,2022-01-01,177526.42478957807
KMVE0,Montevideo,US,MN,,KMVE,44.9691,-95.7103,316.0,America/Chicago,2006-01-01,2023-07-31,2006-01-01,2022-04-24,2006-01-01,2022-01-01,177537.68733284567
KFOZ0,Bigfork,US,MN,,KFOZ,47.7828,-93.6502,412.0,America/Chicago,2006-01-01,2023-07-31,2006-01-01,2022-04-24,2007-01-01,2022-01-01,183470.69697330604
KBWP0,Wahpeton / Boise De Sioux Mobile Estates,US,ND,,KBWP,46.2443,-96.6072,295.0,America/Chicago,2006-01-01,2023-07-31,2006-01-06,2022-04-24,2006-01-01,2022-01-01,183583.46113159694
KETH0,Wheaton,US,MN,,KETH,45.7805,-96.5439,312.0,America/Chicago,2006-01-01,2023-07-31,2006-01-01,2022-04-24,2006-01-01,2022-01-01,184737.60318808042
KOLG0,Solon Springs,US,WI,,KOLG,46.3148,-91.8164,336.0,America/Chicago,2020-01-14,2023-07-31,2020-01-14,2022-04-24,2020-01-01,2022-01-01,185664.82668415038
KUBE0,Cumberland,US,WI,,KUBE,45.506,-91.9811,379.0,America/Chicago,2011-03-09,2023-07-31,2011-03-12,2022-04-24,2012-01-01,2022-01-01,189126.7814531031
KLVN0,Minneapolis / Lakeville,US,MN,,KLVN,44.6279,-93.2281,293.0,America/Chicago,2006-01-01,2023-07-31,2006-01-01,2022-04-24,2007-01-01,2022-01-01,189230.83081422842
KGDB0,Granite Falls / Lorne,US,MN,,KGDB,44.7533,-95.556,319.0,America/Chicago,2006-01-01,2023-07-31,2006-01-04,2022-04-24,2006-01-01,2022-01-01,189633.85471757018
KEVM0,Eveleth / Genoa,US,MN,,KEVM,47.4251,-92.4981,420.0,America/Chicago,2006-01-01,2023-07-31,2006-01-01,2022-04-24,2009-01-01,2022-01-01,190815.2091176997
Z7ZOG,Redwood Falls Municipal Airport,US,MN,,KRWF,44.5483,-95.0804,312.0,America/Chicago,2022-04-23,2023-07-31,2022-04-24,2022-04-24,,,193375.91852112865
KFSE0,Fosston,US,MN,,KFSE,47.5928,-95.7735,390.0,America/Chicago,2006-01-01,2023-07-31,2006-01-01,2022-04-24,2007-01-01,2022-01-01,196386.62063979215
KVVV0,Ortonville / Hilltop Manor Mobile Home Park,US,MN,,KVVV,45.3057,-96.4244,336.0,America/Chicago,2006-01-01,2023-07-31,2006-01-01,2022-04-25,2008-01-01,2022-01-01,196527.8113459075
KJKJ0,Moorhead / Park Lane Mobile Home Park,US,MN,,KJKJ,46.8393,-96.664,280.0,America/Chicago,2006-01-01,2023-07-31,2006-01-01,2022-04-24,2006-01-01,2022-01-01,200670.37981731282
KDXX0,Madison,US,MN,,KDXX,44.9864,-96.1778,330.0,America/Chicago,2006-01-01,2023-07-31,2006-01-01,2022-04-24,2007-01-01,2022-01-01,201852.76667461317
KRPD0,Rice Lake / Cameron,US,WI,,KRPD,45.4201,-91.7733,338.0,America/Chicago,2006-01-01,2023-07-31,2006-01-01,2022-04-24,2011-01-01,2022-01-01,207834.71312114422
KULM0,New Ulm / Traulich Estates,US,MN,,KULM,44.3197,-94.5023,308.0,America/Chicago,2006-01-01,2023-07-31,2006-01-01,2022-04-24,2006-01-01,2022-01-01,207979.59247011074
KSYN0,Stanton,US,MN,,KSYN,44.4755,-93.0163,280.0,America/Chicago,2006-01-01,2023-07-31,2006-01-04,2022-04-24,2006-01-01,2022-01-01,211680.85406281368
KTWM0,Two Harbors / Waldo,US,MN,,KTWM,47.0491,-91.7452,327.0,America/Chicago,2006-01-01,2023-07-31,2006-01-03,2022-04-24,2007-01-01,2021-01-01,212503.76736121712
KHYR0,Hayward,US,WI,,KHYR,46.0253,-91.4442,371.0,America/Chicago,2006-01-01,2023-07-31,2006-01-01,2022-04-24,2006-01-01,2021-01-01,214923.98259291262
72753,Hector International Airport,US,ND,72753,KFAR,46.9333,-96.8167,274.0,America/Chicago,1948-01-01,2023-07-31,1891-05-19,2023-07-23,1891-01-01,2022-01-01,215275.85076514038
KCQM0,Cook,US,MN,,KCQM,47.8218,-92.6906,405.0,America/Chicago,2006-01-01,2023-07-31,2006-01-01,2022-04-24,2006-01-01,2022-01-01,216423.10652991597
KFBL0,Faribault,US,MN,,KFBL,44.3275,-93.3107,323.0,America/Chicago,2006-01-01,2023-07-31,2006-01-01,2022-04-24,2007-01-01,2022-01-01,217987.1864448779
KMKT0,Mankato / Knollwood Park,US,MN,,KMKT,44.2228,-93.9193,311.0,America/Menominee,2006-01-01,2023-07-31,2006-01-01,2022-04-24,2006-01-01,2022-01-01,218899.91426045384
X9FED,Waskish Municipal Airport,US,MN,,KVWU,48.1501,-94.512,360.0,America/Chicago,2022-04-23,2023-07-31,2022-04-23,2022-04-25,,,220178.81019994486
K8D30,Sisseton,US,SD,,K8D3,45.6708,-96.9962,354.0,America/Chicago,2006-01-01,2023-07-31,2006-01-01,2022-03-09,2006-01-01,2021-01-01,221820.27735869098
KRGK0,Red Wing / Oak Hill Mobile Home Park,US,MN,,KRGK,44.5894,-92.485,237.0,America/Chicago,2006-01-01,2023-07-31,2006-01-01,2022-04-24,2006-01-01,2022-01-01,222914.92018629346
KY230,Chetek,US,WI,,KY23,45.3062,-91.6362,322.0,America/Chicago,2020-01-14,2023-07-31,2020-01-14,2022-04-25,2020-01-01,2022-01-01,222992.13856831056
KCNB0,Canby,US,MN,,KCNB,44.7295,-96.266,364.0,America/Chicago,2006-10-18,2023-07-31,2006-10-20,2022-04-24,2009-01-01,2022-01-01,226694.56400981438
KORB0,Orr / Glendale,US,MN,,KORB,48.0159,-92.8561,400.0,America/Chicago,2006-01-01,2023-07-31,2006-01-01,2022-04-11,2006-01-01,2022-01-01,228884.17573905017
KMML0,Marshall,US,MN,,KMML,44.4517,-95.8244,361.0,America/Chicago,2006-01-01,2023-07-31,2006-01-01,2022-04-24,2008-01-01,2022-01-01,229334.97699135926
KLUM0,Menomonie / Rusk,US,WI,,KLUM,44.8923,-91.8678,273.0,America/Chicago,2006-01-01,2023-07-31,2006-01-01,2022-04-24,2006-01-01,2022-01-01,232676.21079996045
CACQ0,Chatham / Vista-Villa Mobilehome Community,CA,NB,,CACQ,44.0735,-93.5529,343.0,America/Chicago,2006-01-01,2023-07-22,2006-01-04,2022-03-05,2006-01-01,2021-01-01,240030.31957271913
KACQ0,Waseca / Vista-Villa Mobilehome Community,US,MN,,KACQ,44.0735,-93.5529,344.0,America/Chicago,2006-01-01,2023-07-31,2006-01-01,2022-04-19,2006-01-01,2022-01-01,240030.31957271913
KTKC0,Tracy,US,MN,,KTKC,44.2491,-95.6073,408.0,America/Chicago,2006-01-01,2023-07-31,2006-01-04,2022-04-01,2008-01-01,2022-01-01,240497.6609013202
KOWA0,Owatonna / Clinton Falls,US,MN,,KOWA,44.123000000000005,-93.2588,349.0,America/Chicago,2006-01-01,2023-07-31,2006-01-01,2022-04-24,2006-01-01,2022-01-01,240871.20740867427
KBFW0,Silver Bay / Beaver Crossing,US,MN,,KBFW,47.248999999999995,-91.4156,332.0,America/Chicago,2006-01-01,2021-07-09,2006-01-01,2021-07-09,2006-01-01,2021-01-01,244822.12817312457
KJYG0,St James / Grogan,US,MN,,KJYG,43.9863,-94.5579,325.0,America/Chicago,2006-01-01,2023-07-31,2006-01-03,2022-04-24,2008-01-01,2022-01-01,245312.4345732317
KASX0,Ashland / Ashland Junction,US,WI,,KASX,46.5485,-90.919,252.0,America/Chicago,2006-01-01,2023-07-31,2006-01-01,2022-04-24,2006-01-01,2022-01-01,256803.33453001594
UYB6K,Thief River Falls Regional Airport,US,MN,,KTVF,48.0667,-96.1833,340.0,America/Chicago,2022-04-23,2023-07-31,2022-04-23,2022-04-24,,,256924.7522968307
KELO0,Ely Municipal Airport / Northern Terrace Mobile Home Park,US,MN,,KELO,47.8246,-91.8307,444.0,America/Chicago,2006-01-01,2023-07-31,2006-01-01,2022-04-24,2006-01-01,2021-01-01,257587.7203820463
KEAU0,Eau Claire County / Pinehurst,US,WI,,KEAU,44.8658,-91.4843,278.0,America/Chicago,1973-01-01,2023-07-31,1973-01-01,2022-04-24,1973-01-01,2022-01-01,258570.82448570445
KCKN0,Crookston / Shirley,US,MN,,KCKN,47.8417,-96.6215,274.0,America/Chicago,2006-01-01,2023-07-31,2006-01-01,2022-04-24,2007-01-01,2022-01-01,259243.64305253472
KRCX0,Ladysmith / Tony,US,WI,,KRCX,45.4968,-91.0005,378.0,America/Chicago,2009-06-17,2023-07-31,2009-06-17,2022-04-24,2009-01-01,2022-01-01,260917.73398562585
KMWM0,Windom / Bingham Lake,US,MN,,KMWM,43.9134,-95.1094,430.0,America/Chicago,2006-01-01,2023-07-31,2006-01-01,2022-04-24,2007-01-01,2022-01-01,261445.03415105262
KGWR0,Gwinner,US,ND,,KGWR,46.2187,-97.6435,386.0,America/Chicago,2014-07-01,2023-07-31,2014-07-01,2022-04-24,2015-01-01,2022-01-01,263265.70603960304
KTOB0,Dodge Center,US,MN,,KTOB,44.018,-92.8315,398.0,America/Chicago,2006-01-01,2023-07-31,2006-01-01,2022-03-30,2007-01-01,2022-01-01,264015.98571629997
KCDD0,Crane Lake,US,MN,,KCDD,48.2666,-92.4835,341.0,America/Chicago,2006-01-01,2023-07-31,2006-02-23,2022-04-24,2010-01-01,2021-01-01,266634.4053958204
KATY0,Watertown,US,SD,,KATY,44.913999999999994,-97.1547,533.0,America/Chicago,1948-01-01,2023-07-31,1948-01-24,2022-04-24,1948-01-01,2022-01-01,268166.063352047
72747,Falls International Airport,US,MN,72747,KINL,48.5667,-93.4,361.0,America/Chicago,1973-01-01,2023-07-31,1906-07-01,2023-07-23,1906-01-01,2022-01-01,272552.66665705026
KDVP0,Davenport / Slayton,US,IA,,KDVP,43.9868,-95.7826,495.0,America/Chicago,2005-08-11,2023-07-31,2005-08-12,2022-04-24,2006-01-01,2022-01-01,272845.7543775424
9W5OW,Barwick,CA,ON,,,48.63,-93.97,335.0,America/Chicago,,,2000-01-01,2022-12-08,2000-01-01,2022-01-01,273119.8272632681
K4R50,La Pointe,US,WI,,K4R5,46.7887,-90.7587,198.0,America/Chicago,2016-11-11,2023-07-31,2016-11-12,2022-03-08,,,273724.94014399685
UO0HZ,Britton,US,SD,,KBTN,45.8152,-97.7431,401.0,America/Chicago,2022-04-23,2023-07-31,2022-04-23,2022-04-25,,,274890.26329166704
JJR7O,St. Mary's Hospital Heliport,US,MN,,K9MN,44.0206,-92.4829,355.0,America/Chicago,2022-05-06,2023-07-31,,,,,276200.91263068636
71962,Fort Frances RCS,CA,ON,71962,CTAG,48.65,-93.44,342.0,America/Winnipeg,2008-04-29,2023-07-07,2007-10-08,2023-07-23,2007-01-01,2022-01-01,280923.30085013603
KFRM0,Fairmont / Fairmont Estates,US,MN,,KFRM,43.6439,-94.4156,354.0,America/Chicago,2006-01-01,2023-07-31,2006-01-01,2022-04-24,2006-01-01,2022-01-01,282380.63005231944
KBDE0,Baudette,US,MN,,KBDE,48.7284,-94.6122,331.0,America/Chicago,1983-11-04,2023-07-31,1995-02-11,2022-04-24,1998-01-01,2022-01-01,284902.2980818612
KAEL0,Albert Lea / Bancroft,US,MN,,KAEL,43.6815,-93.3672,384.0,America/Chicago,2006-01-01,2023-07-31,2006-01-02,2022-04-24,2006-01-01,2022-01-01,285841.1971249245
72644,Rochester International Airport,US,MN,72644,KRST,43.9,-92.5,401.0,America/Chicago,1973-01-01,2023-07-31,1893-01-18,2023-07-23,1893-01-01,2022-01-01,287365.5456018822
KMJQ0,Jackson,US,MN,,KMJQ,43.65,-94.9865,441.0,America/Chicago,2006-01-01,2023-07-31,2006-01-01,2022-04-24,2006-01-01,2022-01-01,287643.1523877123
KBKX0,Brookings,US,SD,,KBKX,44.3048,-96.8169,502.0,America/Chicago,2006-01-01,2023-07-31,2006-01-01,2022-04-24,2006-01-01,2022-01-01,291014.2912789408
72741,Park Falls,US,WI,72741,KPKF,45.9333,-90.45,462.0,America/Chicago,1973-01-01,2001-02-03,1910-05-01,2023-07-20,1910-01-01,2021-01-01,292401.336416404
KPQN0,Pipestone,US,MN,,KPQN,43.9833,-96.3003,529.0,America/Chicago,2006-01-01,2022-08-02,2006-01-01,2022-04-24,2012-01-01,2022-01-01,293658.56135830405
MBPUU,Oakes Municipal Airport,US,ND,,K2D5,46.1731,-98.0799,407.0,America/Chicago,2022-05-06,2023-07-31,,,,,296932.3881561241
KGFK0,Grand Forks / Powell,US,ND,,KGFK,47.9473,-97.1738,257.0,America/Chicago,2010-08-01,2023-07-31,2010-08-01,2022-04-24,2010-01-01,2022-01-01,297588.3258634995
KAUM0,Austin,US,MN,,KAUM,43.6626,-92.9329,376.0,America/Chicago,2006-01-01,2023-07-31,2006-01-01,2022-04-24,2007-01-01,2022-01-01,297745.7112442804
KPBH0,Phillips,US,WI,,KPBH,45.7089,-90.4025,456.0,America/Chicago,2006-01-01,2023-07-31,2006-01-01,2022-04-24,2007-01-01,2022-01-01,299978.76955920184
KOTG0,Worthington / Sungold Heights Mobile Home Park,US,MN,,KOTG,43.6551,-95.5792,480.0,America/Chicago,2006-01-01,2023-07-31,2006-01-01,2022-04-24,2006-01-01,2022-01-01,300338.4339122886
KBAC0,Valley City / North Valley City,US,ND,,KBAC,46.9412,-98.01799999999999,427.0,America/Chicago,2010-12-15,2023-07-31,2010-12-16,2022-04-24,2014-01-01,2022-01-01,302213.18928895413
KONA0,Winona / Country Valley Mobile Home Park,US,MN,,KONA,44.0772,-91.7083,200.0,America/Chicago,2006-01-01,2023-07-31,2006-01-01,2022-04-24,2006-01-01,2022-01-01,305874.2223752908
KEST0,Estherville / Gruver,US,IA,,KEST,43.4074,-94.7464,402.0,America/Chicago,2006-01-01,2023-07-31,2006-01-01,2022-04-24,2006-01-01,2022-01-01,311022.7973485619
V5792,Mine Centre Southwest,CA,ON,,,48.76,-92.62,361.0,America/Rainy_River,,,2005-10-01,2022-12-09,2005-01-01,2022-01-01,311167.1629925736
T4E4V,Grand Forks Air Force Base,US,ND,,KRDR,47.9667,-97.4,278.0,America/Chicago,2022-04-23,2023-07-31,2022-04-23,2022-04-24,,,311989.2977635394
KIWD0,Ironwood / Hautala Corner,US,MI,,KIWD,46.5275,-90.1314,375.0,America/Menominee,2006-01-01,2023-07-31,2006-01-01,2022-04-24,2008-01-01,2022-01-01,316359.0226039196
P6529,Roseau Municipal Airport,US,MN,,KROX,48.85,-95.7,323.0,America/Chicago,2022-04-23,2023-07-31,2022-04-23,2022-04-25,,,316943.3935192642
KRRT0,Warroad / Longworth,US,MN,,KRRT,48.9415,-95.3485,328.0,America/Chicago,2006-01-01,2023-07-31,2006-01-01,2022-04-24,2006-01-01,2022-01-01,318482.21157129883
KFKA0,Preston / Carimona,US,MN,,KFKA,43.6767,-92.1797,389.0,America/Chicago,2006-01-01,2023-07-31,2006-01-01,2022-04-24,2007-01-01,2022-01-01,321441.92692673224
KLYV0,Luverne,US,MN,,KLYV,43.6168,-96.2177,437.0,America/Chicago,2006-01-01,2023-07-31,2006-01-04,2022-04-24,2007-01-01,2022-01-01,325397.520815605
KS320,Cooperstown,US,ND,,KS32,47.4228,-98.1059,434.0,America/Chicago,2015-09-26,2023-07-31,2015-09-27,2022-04-24,2020-01-01,2022-01-01,326221.77573812025
KMDZ0,Medford / Little Black,US,WI,,KMDZ,45.1015,-90.3008,451.0,America/Chicago,2006-01-01,2023-07-31,2006-01-01,2022-04-24,2006-01-01,2022-01-01,327605.6840539305
KMDS0,Madison,US,SD,,KMDS,44.0164,-97.0856,524.0,America/Chicago,2009-03-14,2023-07-31,2009-03-30,2022-04-24,2010-01-01,2022-01-01,329120.9554435803
KFXY0,Forest City,US,IA,,KFXY,43.2348,-93.6241,375.0,America/Chicago,2009-07-14,2023-07-31,2009-07-16,2022-04-24,2015-01-01,2022-01-01,330863.7768155743
71449,Sprague,CA,MB,71449,CWSU,49.02,-95.6,329.0,America/Winnipeg,2001-09-16,2023-07-05,1992-12-01,2023-07-28,1993-01-01,2022-01-01,332252.6087858513
KD250,Manitowish Waters,US,WI,,KD25,46.122,-89.8823,491.0,America/Chicago,2011-12-15,2023-07-31,2011-12-16,2022-04-24,2012-01-01,2022-01-01,334395.5813519515
72659,Aberdeen Regional Airport,US,SD,72659,KABR,45.45,-98.4167,397.0,America/Chicago,1973-01-01,2023-07-31,1893-01-01,2023-07-23,1893-01-01,2022-01-01,334940.7282916797
KBCK0,Black River Falls / Charter Oak Mills (Historical),US,WI,,KBCK,44.2507,-90.8553,255.0,America/Chicago,2010-11-18,2023-07-31,2010-11-19,2022-04-24,2011-01-01,2022-01-01,339946.72242460627
KGNA0,Grand Marais,US,MN,,KGNA,47.7472,-90.3444,186.0,America/Chicago,2006-01-01,2023-07-31,2006-01-01,2022-04-24,2006-01-01,2021-01-01,342010.53069904255
KGAF0,Grafton,US,ND,,KGAF,48.4047,-97.3709,251.0,America/Chicago,2010-11-18,2023-07-31,2010-11-19,2022-04-24,2014-01-01,2022-01-01,342827.64386010927
72650,Spencer / Birchwood Estates,US,IA,72650,,43.1667,-95.15,408.0,America/Chicago,,,1895-02-01,2023-07-23,1895-01-01,2022-01-01,342952.5521521459
KMCW0,Mason City / Orchard Park Mobile Home Court,US,IA,,KMCW,43.1578,-93.3313,370.0,America/Chicago,1973-01-01,2023-07-31,1973-01-01,2022-04-24,1975-01-01,2022-01-01,343338.8798478917
KSPW0,Spencer / Birchwood Estates,US,IA,,KSPW,43.1655,-95.2028,408.0,America/Chicago,2006-01-01,2023-07-31,2006-01-01,2022-04-24,2006-01-01,2021-01-01,343998.3869436876
KCKC0,Grand Marais / Pine Mountain Trailer Court,US,MN,,KCKC,47.8383,-90.3829,548.0,America/Chicago,2006-01-01,2023-07-31,2006-01-01,2022-04-24,2006-01-01,2022-01-01,344597.30585475
KAXA0,Algona / Hobarton,US,IA,,KAXA,43.0779,-94.272,371.0,America/Chicago,2006-01-01,2023-07-31,2006-01-01,2022-04-24,2011-01-01,2022-01-01,344931.5945531346
72643,La Crosse Municipal Airport,US,WI,72643,KLSE,43.8833,-91.25,199.0,America/Chicago,1948-01-01,2023-07-31,1938-04-01,2023-07-23,1938-01-01,2022-01-01,346055.5234310426
71748,Atikokan,CA,MB,,CWCH,48.75,-91.6167,424.0,America/Atikokan,2001-09-16,2023-07-06,2005-01-01,2023-07-23,2006-01-01,2022-01-01,346460.9156251643
71747,Atikokan,CA,ON,71747,CYIB,48.76,-91.63,389.0,America/Atikokan,2020-01-01,2022-12-14,2000-12-13,2023-07-23,2001-01-01,2022-01-01,346805.6119634693
KARV0,Minocqua / Woodruff,US,WI,,KARV,45.9279,-89.7309,497.0,America/Chicago,2006-01-01,2023-07-31,2006-01-01,2022-04-24,2009-01-01,2022-01-01,347730.1099137787
72651,Sioux Falls Foss Field,US,SD,72651,KFSD,43.5833,-96.75,436.0,America/Chicago,1942-10-01,2023-07-31,1932-01-01,2023-07-23,1932-01-01,2022-01-01,350661.38541679
KJMS0,Jamestown,US,ND,,KJMS,46.9297,-98.6782,457.0,America/Chicago,1973-01-01,2023-07-31,1973-01-01,2022-04-24,2000-01-01,2022-01-01,350663.9490508704
KTKV0,Tomahawk / Jersey City,US,WI,,KTKV,45.4694,-89.8057,453.0,America/Chicago,2006-01-01,2023-07-31,2006-01-04,2022-04-24,2008-01-01,2022-01-01,351232.01646061556
KHCO0,Hallock / Viking Land Terrace,US,MN,,KHCO,48.7527,-96.943,250.0,America/Chicago,2006-01-01,2023-07-31,2006-01-01,2022-04-24,2006-01-01,2022-01-01,351596.3559374158
KFGN0,Flag Island / Penasse,US,MN,,KFGN,49.3183,-94.9028,329.0,America/Winnipeg,2006-01-01,2023-07-31,2006-01-01,2022-04-24,2011-01-01,2022-01-01,352667.6063042482
KSHL0,Sheldon,US,IA,,KSHL,43.2084,-95.8334,433.0,America/Chicago,2006-01-01,2023-07-31,2006-01-01,2022-04-24,2015-01-01,2022-01-01,354049.968393569
KARX0,La Crosse / Cold Springs,US,WI,,KARX,43.8228,-91.1911,389.0,America/Chicago,1942-01-01,1980-03-14,1942-01-03,1980-01-31,1942-01-01,1953-01-01,354226.31244530587
KMFI0,Marshfield / Bakerville,US,WI,,KMFI,44.6369,-90.1893,390.0,America/Chicago,2006-01-01,2023-07-31,2006-01-01,2022-04-24,2006-01-01,2022-01-01,358530.3415545289
KRRL0,Merrill,US,WI,,KRRL,45.1989,-89.7129,402.0,America/Chicago,2006-01-01,2023-07-31,2006-01-02,2022-04-24,2008-01-01,2022-01-01,366850.52423733217
21O3U,Royal Island,CA,ON,71859,,49.47,-94.76,329.0,America/Rainy_River,2020-09-23,2022-12-14,2016-01-07,2022-12-13,2016-01-01,2022-01-01,368045.90551496303
KCCY0,Charles City / Doubleday,US,IA,,KCCY,43.0726,-92.6108,343.0,America/Chicago,2006-01-01,2023-07-31,2006-01-01,2022-04-24,2014-01-01,2022-01-01,368283.8197821542
KCMY0,Sparta / Angelo,US,WI,,KCMY,43.9583,-90.7379,255.0,America/Chicago,2006-01-01,2023-07-31,2006-01-01,2022-04-24,2006-01-01,2021-01-01,368613.8846784899
72654,Huron Regional Airport,US,SD,72654,KHON,44.3833,-98.2333,393.0,America/Chicago,1973-01-01,2023-07-31,1881-07-01,2023-07-23,1881-01-01,2022-01-01,371879.08947606845
KRHI0,Rhinelander,US,WI,,KRHI,45.6309,-89.4666,495.0,America/Chicago,2006-01-01,2023-07-31,2006-01-01,2022-04-24,2006-01-01,2022-01-01,372995.1038501528
UV7W2,St Labre,CA,MB,,,49.35,-96.04,352.0,America/Winnipeg,,,2000-09-01,2022-12-09,2000-01-01,2022-01-01,377739.4032792814
KDEH0,Decorah / Freeport,US,IA,,KDEH,43.2755,-91.7394,353.0,America/Chicago,2006-01-01,2023-07-31,2006-01-01,2022-04-24,2014-01-01,2022-01-01,377823.8739830698
KEGV0,Eagle River,US,WI,,KEGV,45.9323,-89.2683,501.0,America/Chicago,2006-01-01,2023-06-06,2006-01-01,2022-04-24,2006-01-01,2022-01-01,383256.1323941308
KORC0,Orange City / Candlelight Trailer Court,US,IA,,KORC,42.9903,-96.0628,431.0,America/Chicago,2006-01-01,2019-02-28,2006-01-01,2019-02-27,2011-01-01,2017-01-01,383382.51615802717
72646,Wausau / Wausau Junction,US,WI,72646,KAUW,44.9263,-89.62700000000001,366.0,America/Chicago,1990-03-14,2023-07-31,1941-12-01,2023-07-23,1941-01-01,2022-01-01,383978.5612270189
KCAV0,Clarion,US,IA,,KCAV,42.7419,-93.7589,353.0,America/Chicago,2006-01-01,2023-07-31,2006-01-01,2022-04-24,2014-01-01,2022-01-01,384040.07960686437
KLNL0,Land O Lakes / Land O' Lakes,US,WI,,KLNL,46.153999999999996,-89.2121,520.0,America/Chicago,2006-01-01,2023-07-31,2006-01-04,2022-04-24,2009-01-01,2022-01-01,385836.51985739416
K2C80,Cavalier,US,ND,,K2C8,48.7837,-97.632,272.0,America/Chicago,2010-11-18,2023-07-31,2010-11-19,2022-03-09,2014-01-01,2019-01-01,386524.4272588299
71560,Emerson,CA,MB,71560,,49.0,-97.24,242.0,America/Chicago,2001-09-16,2023-07-05,2009-07-23,2023-07-28,2009-01-01,2022-01-01,386625.17439390335
0CNUO,Rawson Lake,CA,ON,,,49.65,-93.72,358.0,America/Rainy_River,,,2000-01-01,2022-10-16,2000-01-01,2022-01-01,387688.7415635142
KCWA0,Mosinee,US,WI,,KCWA,44.7776,-89.6668,389.0,America/Chicago,2006-01-01,2023-07-31,2009-10-05,2022-04-24,2020-01-01,2022-01-01,387869.8324119021
3S56J,Rawson Lake,CA,ON,71855,,49.66,-93.73,435.0,America/Rainy_River,2020-01-01,2022-12-14,2003-12-01,2022-12-14,2003-01-01,2021-01-01,388724.09596355
71655,Rawson Lake / Hawk Lake,CA,ON,,CTRA,49.6642,-93.7328,435.0,America/Rainy_River,2009-09-23,2023-07-31,2009-09-24,2022-04-26,2009-01-01,2021-01-01,389169.2692717794
VMWBN,Indian Bay,CA,MB,,,49.62,-95.2,327.0,America/Winnipeg,,,2000-01-01,2022-12-09,2000-01-01,2022-01-01,389399.85118316894
KY510,Viroqua,US,WI,,KY51,43.5794,-90.8965,394.0,America/Chicago,2014-07-31,2023-07-31,2014-08-06,2022-04-25,2020-01-01,2022-01-01,390189.6752104017
KHPT0,Hampton,US,IA,,KHPT,42.7237,-93.2263,358.0,America/Chicago,2020-01-14,2023-07-31,2020-01-14,2022-04-24,2020-01-01,2021-01-01,392345.473007988
KCKP0,Cherokee / Onawa Junction,US,IA,,KCKP,42.7312,-95.5561,374.0,America/Chicago,2006-01-01,2023-07-31,2006-01-04,2022-04-24,2014-01-01,2022-01-01,397773.2317948381
KISW0,Wisconsin Rapids / Port Edwards,US,WI,,KISW,44.3603,-89.839,311.0,America/Chicago,2006-01-01,2023-07-31,2006-01-01,2022-04-24,2006-01-01,2022-01-01,398199.14498876914
KVOK0,Volk / Camp Douglas,US,WI,,KVOK,43.9392,-90.2532,278.0,America/Chicago,1961-10-01,2023-07-31,1962-10-25,2022-04-22,1966-01-01,2021-01-01,399033.2391526719
K46D0,Carrington,US,ND,,K46D,47.4511,-99.1513,490.0,America/Chicago,2010-06-10,2023-07-31,2010-06-11,2022-03-09,2020-01-01,2020-01-01,400692.08764838823
71850,Kenora Airport,CA,ON,71850,CYQK,49.79,-94.36,410.0,America/Winnipeg,1955-07-04,2023-07-31,1938-08-26,2022-12-11,1938-01-01,2022-01-01,401570.7513642477
UJHR7,Kenora RCS,CA,ON,71151,,49.79,-94.38,413.0,America/Winnipeg,2020-01-01,2022-12-14,2008-07-21,2022-12-11,2008-01-01,2022-01-01,401611.2238185403
KMHE0,Mitchell / River Bluff Addition,US,SD,,KMHE,43.7748,-98.0386,398.0,America/Chicago,2006-01-01,2023-07-31,2006-01-01,2022-04-24,2006-01-01,2022-01-01,401891.0127387577
72549,Fort Dodge,US,IA,72549,KFOD,42.55,-94.1833,354.0,America/Chicago,2006-01-01,2023-07-31,2006-01-01,2022-04-25,2006-01-01,2022-01-01,403622.03248246014
71441,Gretna,CA,MB,71441,CWGN,49.03,-97.56,253.0,America/Winnipeg,1981-10-26,2023-07-04,1885-04-20,2023-07-28,1885-01-01,2022-01-01,403691.0007888483
KSLB0,Storm Lake / Casino Beach,US,IA,,KSLB,42.5973,-95.2407,454.0,America/Chicago,2006-01-01,2023-07-31,2006-01-01,2022-04-24,2014-01-01,2022-01-01,406464.44479468476
KSTE0,Stevens Point / Park Ridge,US,WI,,KSTE,44.5451,-89.5303,338.0,America/Chicago,2006-01-01,2023-07-31,2006-01-01,2022-04-24,2006-01-01,2022-01-01,409126.1685464863
KLRJ0,Le Mars / Armel Acres Mobile Home Estates,US,IA,,KLRJ,42.7779,-96.1937,365.0,America/Chicago,2006-01-01,2023-07-31,2006-01-01,2022-04-24,2011-01-01,2022-01-01,409270.67425869545
K96D0,Walhalla,US,ND,,K96D,48.9406,-97.9028,291.0,America/Chicago,2010-11-18,2023-07-31,2010-11-19,2022-03-09,2016-01-01,2016-01-01,412796.62234976265
KAIG0,Antigo,US,WI,,KAIG,45.1542,-89.1107,464.0,America/Chicago,2006-01-01,2023-07-31,2006-01-01,2022-04-24,2006-01-01,2022-01-01,413218.8219194813
SFHU0,New Lisbon Mauston Airport,US,WI,,K82C,43.8387,-90.1377,276.0,America/Chicago,2022-05-06,2023-07-31,,,,,413317.5302177548
A4QYJ,Devils Lake Municipal Airport,US,ND,,KDVL,48.1167,-98.9167,443.0,America/Chicago,2022-04-23,2023-07-31,2022-04-23,2022-04-26,,,415075.5666020034
KEBS0,Webster City / Highview,US,IA,,KEBS,42.4365,-93.8691,342.0,America/Chicago,2006-01-01,2023-07-31,2006-01-01,2022-04-24,2010-01-01,2022-01-01,417180.7983557357
KIFA0,Iowa Falls / Racine,US,IA,,KIFA,42.4708,-93.27,347.0,America/Chicago,2007-10-16,2023-07-31,2007-10-19,2022-04-24,2014-01-01,2022-01-01,419317.3315028065
20QWH,Rennie,CA,MB,,,49.85,-95.53,323.0,America/Winnipeg,,,2000-01-01,2022-12-09,2000-01-01,2009-01-01,419513.3974582138
N74GR,Dryden Regional,CA,ON,71527,,49.83,-92.74,413.0,America/Rainy_River,2020-01-01,2022-12-14,2010-09-24,2022-12-11,2011-01-01,2022-01-01,420595.1359193806
71582,Dryden,CA,ON,,CYHD,49.8317,-92.7333,413.0,America/Winnipeg,1962-01-01,2023-07-31,1977-07-01,2023-07-28,2006-01-01,2022-01-01,420907.82086502615
8ZB0I,Kleefeld (mafri),CA,MB,71646,,49.52,-96.9,246.0,America/Winnipeg,2020-01-01,2022-12-14,2014-09-17,2022-12-11,2014-01-01,2022-01-01,421659.77248247975
71637,Dryden,CA,ON,,CXDR,49.8583,-92.7971,410.0,America/Rainy_River,2014-04-04,2023-07-06,,,,,422540.3827929376
71435,Upsala,CA,ON,71435,CWDV,49.03,-90.47,488.0,America/Nipigon,1981-10-26,2023-07-31,1973-01-01,2023-07-28,1973-01-01,2022-01-01,423707.2441416743
KD550,Langdon,US,ND,,KD55,48.7531,-98.3937,490.0,America/Chicago,2020-01-14,2023-07-31,2020-01-14,2022-04-24,2020-01-01,2022-01-01,424342.38029743434
72516,Bennington / Napoleon,US,VT,72516,K5B5,46.4944,-99.7601,604.0,America/New_York,,,2006-06-03,2023-07-23,2006-01-01,2021-01-01,426430.7289967425
KOLZ0,Oelwein,US,IA,,KOLZ,42.6808,-91.9745,328.0,America/Chicago,2006-01-01,2023-07-31,2006-01-05,2022-04-24,2012-01-01,2022-01-01,428030.42746273597
KPDC0,Prairie Du Chien / Selchs Mobile Home Park,US,WI,,KPDC,43.0193,-91.1237,201.0,America/Chicago,2006-01-01,2023-07-31,2006-01-01,2022-04-24,2007-01-01,2022-01-01,428543.10602722643
GCHAU,Schanzenfeld,CA,MB,,,49.13,-97.95,277.0,America/Winnipeg,,,2000-01-01,2022-12-11,2000-01-01,2021-01-01,430637.3540836441
KOVS0,Boscobel,US,WI,,KOVS,43.1608,-90.67399999999999,205.0,America/Chicago,2006-01-01,2023-07-31,2006-01-01,2022-04-24,2006-01-01,2022-01-01,437459.0610207438
72548,Waterloo Municipal Airport,US,IA,72548,KALO,42.55,-92.0667,266.0,America/Chicago,1960-03-01,2023-07-31,1950-03-01,2023-07-23,1950-01-01,2022-01-01,438457.0637943439
KYKN0,Yankton / Yangton [Misspelling],US,SD,,KYKN,42.9167,-97.3859,398.0,America/Chicago,2006-01-01,2023-07-31,2006-01-01,2022-04-24,2009-01-01,2022-01-01,440900.7689861151
71564,Morden CDA CS,CA,MB,71564,CXMD,49.19,-98.08,298.0,America/Winnipeg,2001-09-16,2023-07-31,1999-12-01,2023-07-28,1999-01-01,2022-01-01,441920.91731719376
71667,Thunder Bay CS,CA,ON,71667,CZTB,48.37,-89.33,199.0,America/Thunder_Bay,2005-01-01,2023-07-31,2003-10-01,2023-07-28,2003-01-01,2022-01-01,442116.08872117416
NLAUF,Thunder Bay,CA,ON,71072,,48.37,-89.32,199.0,America/Thunder_Bay,2020-05-08,2022-12-14,2012-02-09,2022-12-11,1954-01-01,2022-01-01,442745.45056093694
71749,"Thunder Bay, Ontario",CA,ON,71749,CYQT,48.3667,-89.3167,199.0,America/Thunder_Bay,1955-07-02,2023-07-31,1957-01-02,2022-04-25,1957-01-01,2022-01-01,442761.485372935
KC350,Reedsburg / Maple Aire Mobile Village,US,WI,,KC35,43.5259,-89.9832,276.0,America/Chicago,2020-01-14,2023-07-31,2020-01-14,2022-04-24,2020-01-01,2022-01-01,445735.3655533359
72557,Sioux Gateway Airport,US,IA,72557,KSUX,42.3833,-96.05,335.0,America/Chicago,1942-10-01,2023-07-31,1942-10-01,2023-07-24,1942-01-01,2022-01-01,446461.80173992744
L1YUU,Thunder Bay Burwood,CA,ON,,,48.41,-89.28,200.0,America/Thunder_Bay,,,2005-11-01,2020-03-25,2005-01-01,2014-01-01,447594.4349423539
72744,Hancock Houghton Cty. Memo,US,MI,72744,KCMX,47.1667,-88.4833,334.0,America/Detroit,1973-01-01,2023-07-31,1948-01-01,2023-07-23,1948-01-01,2022-01-01,451352.73607846233
KIIB0,Independence / Pine Ridge Mobile Home Court,US,IA,,KIIB,42.4569,-91.9477,298.0,America/Chicago,2006-01-01,2023-07-31,2006-01-01,2022-04-24,2014-01-01,2022-01-01,451758.7801552472
LII7V,Hazelwood,CA,ON,,,48.47,-89.27,322.0,America/Thunder_Bay,,,2016-01-04,2022-12-12,2016-01-01,2022-01-01,451767.42199028225
CXQT0,Thunder Bay,CA,ON,,CXQT,48.4333,-89.2167,190.0,America/Thunder_Bay,2020-04-20,2023-06-21,2020-04-21,2021-05-12,,,452929.85383253696
KY500,Wautoma,US,WI,,KY50,44.0416,-89.3045,262.0,America/Chicago,2014-07-31,2023-07-31,2014-08-01,2022-04-24,2020-01-01,2022-01-01,453202.4884326333
71751,Welcome Island,CA,ON,71751,CWEC,48.37,-89.12,211.0,America/Thunder_Bay,1996-11-01,2023-07-06,1967-05-01,2023-07-23,1967-01-01,2022-01-01,455411.82812463894
KPCZ0,Waupaca,US,WI,,KPCZ,44.3332,-89.0198,256.0,America/Chicago,2006-01-01,2023-07-31,2006-01-04,2022-04-24,2008-01-01,2022-01-01,455982.51977392694
K9D70,Cando,US,ND,,K9D7,48.48,-99.2364,452.0,America/Chicago,2010-11-18,2023-07-31,2010-11-19,2021-10-18,2014-01-01,2016-01-01,456116.5742459046
9Y8VW,Pinawa Canwarn,CA,MB,,,50.15,-95.89,278.0,America/Winnipeg,,,2005-02-01,2022-12-10,2005-01-01,2022-01-01,458423.4921848084
KDLL0,Baraboo / West Baraboo,US,WI,,KDLL,43.522,-89.7709,298.0,America/Chicago,2006-01-01,2023-07-31,2006-01-01,2022-04-24,2008-01-01,2022-01-01,458690.8056928072
KLNR0,Lone Rock,US,WI,,KLNR,43.2119,-90.1798,219.0,America/Chicago,1973-01-01,2023-07-31,2004-01-03,2022-04-24,2005-01-01,2022-01-01,459275.67075920844
KBNW0,Boone,US,IA,,KBNW,42.0496,-93.8476,354.0,America/Chicago,2006-01-01,2023-07-31,2006-01-01,2022-04-24,2011-01-01,2022-01-01,460227.0972371788
MUKMN,Oakbank,CA,MB,,,49.93,-96.85,246.0,America/Winnipeg,,,2000-01-01,2022-09-14,2000-01-01,2022-01-01,460380.08315128955
Y59TE,Carroll,US,IA,,KCIN,42.05,-94.7833,375.0,America/Chicago,2022-04-23,2023-07-31,2022-04-23,2022-04-25,,,461376.4330025626
KCLI0,Clintonville,US,WI,,KCLI,44.6133,-88.7307,251.0,America/Chicago,2006-01-01,2023-07-31,2006-01-01,2022-04-01,2007-01-01,2022-01-01,462742.53058323514
K7L20,Linton,US,ND,,K7L2,46.2206,-100.2456,542.0,America/Chicago,2011-05-13,2023-07-31,2011-05-14,2022-03-09,,,463421.21282168705
KMIW0,Marshalltown / Maulsby,US,IA,,KMIW,42.1127,-92.9178,297.0,America/Chicago,2006-01-01,2023-07-31,2006-01-01,2022-04-24,2006-01-01,2021-01-01,464053.25582555425
71448,Pinawa,CA,MB,71448,CWEA,50.18,-96.06,268.0,America/Winnipeg,1991-06-11,2023-07-05,1991-12-01,2023-07-28,1993-01-01,2022-01-01,465152.8317618916
DGX32,Pinawa Wnre,CA,MB,,,50.18,-96.06,267.0,America/Winnipeg,,,2000-01-01,2018-03-31,2000-01-01,2014-01-01,465152.8317618916
71579,Winnipeg The Forks,CA,MB,71579,CXWN,49.89,-97.13,230.0,America/Winnipeg,2001-09-16,2023-07-30,1999-11-01,2023-07-28,1999-01-01,2022-01-01,465662.3144873952
71147,Carman U Of M CS,CA,MB,71147,CWNK,49.5,-98.03,268.0,America/Winnipeg,1996-11-01,2023-07-31,1995-06-27,2023-07-28,1995-01-01,2022-01-01,465739.1274391995
DCBG8,Winnipeg Charleswood 2,CA,MB,,,49.85,-97.27,238.0,America/Winnipeg,,,2004-10-27,2022-06-01,2004-01-01,2022-01-01,466725.14617010235
KEZS0,Shawano,US,WI,,KEZS,44.7873,-88.56,248.0,America/Chicago,2009-02-01,2023-07-31,2009-03-12,2022-04-24,2012-01-01,2022-01-01,467728.8895760995
71461,Trowbridge Island,CA,AB,,CPEL,48.3,-88.8667,218.0,America/Thunder_Bay,1984-09-21,2023-07-05,1984-09-23,2023-07-27,2008-01-01,2022-01-01,467921.8648291813
KAMW0,Ames / Old Orchard Mobile Home Park,US,IA,,KAMW,41.9921,-93.6218,291.0,America/Chicago,2006-01-01,2023-07-31,2006-01-01,2022-04-24,2006-01-01,2022-01-01,468110.95224466734
W5F5F,Harvey Municipal Airport,US,ND,,K5H4,47.7912,-99.9317,490.0,America/Chicago,2022-05-06,2023-07-31,,,,,468492.62038411765
71842,Sioux Lookout Airport,CA,ON,71842,CYXL,50.11,-91.91,383.0,America/Winnipeg,1955-07-02,2023-07-31,1938-08-01,2023-07-22,1938-01-01,2022-01-01,469452.16162370413
SR36N,Sioux Lookout Airport,CA,ON,73017,,50.11,-91.91,338.0,America/Winnipeg,2020-01-01,2023-03-31,2018-09-15,2022-12-12,2018-01-01,2022-01-01,469452.16162370413
71852,Winnipeg Airport,CA,MB,71852,CYWG,49.9,-97.2333,239.0,America/Winnipeg,1955-07-02,2023-07-31,1938-01-03,2022-04-25,1938-01-01,2022-01-01,470236.9589755785
71840,Deerwood RCS,CA,MB,71840,CXDW,49.4,-98.32,341.0,America/Winnipeg,2004-11-14,2023-07-31,2000-01-01,2023-07-23,2000-01-01,2022-01-01,470913.2245289227
ZFZUV,Winnipeg Intl Airport,CA,MB,,,49.91,-97.24,239.0,America/Winnipeg,2020-01-01,2022-12-14,2018-10-30,2022-12-11,2018-01-01,2021-01-01,471440.9415763961
C9NCB,Miami Thiessen,CA,MB,,,49.45,-98.25,297.0,America/Winnipeg,,,2000-01-01,2016-06-13,2000-01-01,2016-01-01,471712.59144294745
71849,Winnipeg Airport CS,CA,MB,71849,,49.92,-97.25,239.0,America/Winnipeg,2001-09-16,2023-07-07,1996-10-01,2023-07-23,1996-01-01,2022-01-01,472761.3669996422
KIMT0,Iron Mountain,US,MI,,KIMT,45.8184,-88.1146,360.0,America/Menominee,2006-01-01,2023-07-31,2006-01-01,2022-04-24,2006-01-01,2022-01-01,473429.61122518725
KVTI0,Vinton,US,IA,,KVTI,42.2186,-92.0259,257.0,America/Chicago,2006-01-01,2023-07-31,2006-01-01,2022-04-25,2015-01-01,2022-01-01,473956.2916406811
KDNS0,Denison / Kimze,US,IA,,KDNS,41.9866,-95.3805,388.0,America/Chicago,2006-01-01,2023-07-31,2006-01-01,2022-04-24,2014-01-01,2022-01-01,475318.6837749492
72653,Chamberlain Municipal Airport,US,SD,72653,K9V9,43.7667,-99.3167,517.0,America/Chicago,2006-01-01,2023-07-31,1998-02-01,2023-07-23,1998-01-01,2022-01-01,482073.029484152
KMRJ0,Mineral Point / Linden,US,WI,,KMRJ,42.8868,-90.2362,357.0,America/Chicago,2006-01-01,2023-07-31,2006-01-01,2022-04-24,2007-01-01,2022-01-01,483541.0188590529
KMBG0,Mobridge,US,SD,,KMBG,45.5463,-100.4063,523.0,America/Chicago,2006-01-01,2023-07-31,2006-01-01,2022-04-24,2006-01-01,2022-01-01,483814.68949991616
V2BQ7,Perry Municipal Airport,US,IA,,KPRO,41.828,-94.1599,309.0,America/Chicago,2022-04-23,2023-07-31,2022-04-23,2022-04-23,,,483918.7296980387
71148,Pilot Mound,CA,MB,71148,CWPO,49.19,-98.9,470.0,America/Winnipeg,1957-12-04,2023-07-31,1957-12-01,2023-07-28,1957-01-01,2022-01-01,484195.51036051963
72652,"Pickstown, Sd.",US,SD,72652,,43.0667,-98.5333,453.0,America/Chicago,,,1948-01-01,2017-04-16,1948-01-01,2017-01-01,485847.47960331436
71AZC,Stony Mountain,CA,MB,,,50.12,-97.17,236.0,America/Winnipeg,,,2000-01-01,2022-12-05,2000-01-01,2022-01-01,489556.2952008852
KLCG0,Wayne,US,NE,,KLCG,42.2416,-96.9823,436.0,America/Chicago,2006-01-01,2023-07-31,2006-01-04,2022-04-19,2009-01-01,2022-01-01,489943.4853801062
KPVB0,Platteville / Ipswich,US,WI,,KPVB,42.6894,-90.4444,312.0,America/Chicago,2008-08-25,2023-07-31,2008-08-27,2022-04-24,2015-01-01,2022-01-01,490425.4115718319
MRBBU,St Claude,CA,MB,,,49.65,-98.37,311.0,America/Winnipeg,,,2000-01-01,2018-04-05,2000-01-01,2014-01-01,494222.5316580352
KATW0,Appleton / Greenville,US,WI,,KATW,44.2581,-88.5191,280.0,America/Chicago,2006-01-01,2023-07-31,2020-01-14,2022-04-24,2020-01-01,2022-01-01,495075.38603701966
71570,Great Falls,CA,MB,71570,,50.52,-95.98,253.0,America/Winnipeg,2005-02-18,2023-07-05,2005-01-20,2023-07-28,2005-01-01,2022-01-01,499733.666174416
71295,Ear Falls,CA,ON,71295,CXEA,50.63,-93.22,363.0,America/Rainy_River,2003-06-17,2023-07-31,1999-01-01,2023-07-28,1999-01-01,2022-01-01,500340.9625125631
KADU0,Audubon / Nishna,US,IA,,KADU,41.7014,-94.9205,392.0,America/Chicago,2006-01-01,2023-07-31,2006-01-01,2022-04-24,2011-01-01,2022-01-01,501084.9324996202
KRUG0,Rugby,US,ND,,KRUG,48.3904,-100.0243,472.0,America/Chicago,2010-12-10,2023-07-31,2010-12-10,2022-04-24,2014-01-01,2022-01-01,501704.3806576132
KIKV0,Ankeny / Oakwood Heights Mobile Home Park,US,IA,,KIKV,41.6911,-93.5665,277.0,America/Chicago,2006-01-01,2023-07-31,2006-01-01,2022-04-24,2011-01-01,2022-01-01,501870.8604427268
YTT70,Marquette,CA,MB,,,50.01,-97.81,244.0,America/Winnipeg,,,2000-01-01,2022-12-07,2000-01-01,2022-01-01,502216.3075315769
72538,Copper Harbor,US,MI,72538,KP59,47.4667,-87.8833,191.0,America/Detroit,2006-01-01,2023-07-31,2004-11-11,2023-07-23,2004-01-01,2022-01-01,502973.6248099519
KMXO0,Monticello,US,IA,,KMXO,42.2204,-91.1633,254.0,America/Chicago,2006-01-01,2023-03-06,2006-01-01,2022-04-24,2014-01-01,2022-01-01,503214.38973520044
KC290,Middleton,US,WI,,KC29,43.1143,-89.5315,283.0,America/Chicago,2020-01-14,2023-07-31,2020-01-14,2022-04-24,2020-01-01,2022-01-01,503756.2611597244
72764,Bismarck Municipal Airport,US,ND,72764,KBIS,46.7833,-100.75,511.0,America/Chicago,1936-07-01,2023-07-31,1936-07-01,2023-07-24,1936-01-01,2022-01-01,504087.10698943393
K06D0,Rolla,US,ND,,K06D,48.8844,-99.6208,556.0,America/Chicago,2010-11-18,2023-07-31,2010-11-19,2022-03-09,2017-01-01,2017-01-01,504442.50779187895
KOSH0,Oshkosh / Stony Beach,US,WI,,KOSH,43.9844,-88.557,246.0,America/Chicago,2006-01-01,2023-07-31,2006-01-01,2022-04-24,2006-01-01,2022-01-01,507264.27728230756
KTNU0,Newton / Coal Siding (Historical),US,IA,,KTNU,41.6744,-93.0217,291.0,America/Chicago,2006-01-01,2023-07-31,2006-01-01,2022-04-24,2011-01-01,2022-01-01,510109.05492072273
58G7B,St Alphonse,CA,MB,,,49.45,-99.02,403.0,America/Winnipeg,,,2000-01-01,2016-06-12,2000-01-01,2016-01-01,510223.0867896083
KGGI0,Grinnel / Westfield,US,IA,,KGGI,41.7099,-92.736,307.0,America/Chicago,2006-08-31,2023-07-31,2006-09-03,2022-04-24,2011-01-01,2022-01-01,511057.788727675
71851,Portage Southport,CA,MB,71851,CYPG,49.9,-98.28,273.0,America/Winnipeg,1955-07-02,2023-07-28,1941-07-01,2022-12-13,1941-01-01,2022-01-01,511788.78952987585
72645,Austin Straubel International  Airport,US,WI,72645,KGRB,44.4833,-88.1333,212.0,America/Chicago,1950-01-01,2023-07-31,1886-09-01,2023-07-23,1886-01-01,2022-01-01,511880.4391768534
HEZQT,Baldur,CA,MB,,,49.28,-99.29,450.0,America/Winnipeg,,,2000-01-01,2022-11-29,2000-01-01,2021-01-01,512098.7011799048
KOCQ0,Oconto,US,WI,,KOCQ,44.8742,-87.9096,184.0,America/Chicago,2014-07-31,2023-07-31,2014-08-06,2022-04-24,2020-01-01,2022-01-01,512633.8084586803
72743,Marquette,US,MI,72743,KMQT,46.5333,-87.55,434.0,America/Detroit,1973-01-01,2023-07-10,1857-09-01,2023-07-23,1857-01-01,2022-01-01,513464.44719603227
KPIR0,Pierre / Alto,US,SD,,KPIR,44.3827,-100.286,532.0,America/Chicago,1944-03-01,2023-07-31,1973-01-01,2022-04-24,1981-01-01,2020-01-01,514556.92066185735
KY190,Mandan / On-A-Slant Village (Historical),US,ND,,KY19,46.768,-100.8944,593.0,America/North_Dakota/New_Salem,2010-11-18,2023-07-31,2010-11-19,2022-04-25,2015-01-01,2022-01-01,514890.1935100859
KTQE0,Tekamah / Westside Mobile Home Park,US,NE,,KTQE,41.7635,-96.1779,313.0,America/Chicago,2006-01-01,2023-07-31,2006-01-01,2022-04-24,2006-01-01,2021-01-01,515334.45416892174
SJZBK,Holland,CA,MB,,,49.61,-98.88,375.0,America/Winnipeg,,,2000-01-01,2022-12-04,2000-01-01,2009-01-01,515586.388262934
6URQB,Portage La Prairie CDA,CA,MB,,,49.95,-98.27,259.0,America/Winnipeg,,,2000-01-01,2022-12-09,2000-01-01,2022-01-01,515770.834079872
72545,Cedar Rapids / Konigsmark,US,IA,72545,KCID,41.8851,-91.7123,265.0,America/Chicago,1973-01-01,2023-07-31,1953-06-01,2023-07-23,1953-01-01,2022-01-01,517938.5729783627
72546,Des Moines International,US,IA,72546,KDSM,41.5333,-93.6531,292.0,America/Chicago,1973-01-01,2023-07-31,1945-07-01,2023-07-23,1945-01-01,2022-01-01,518674.53303483257
KHNR0,Harlan / Corley,US,IA,,KHNR,41.5844,-95.3397,375.0,America/Chicago,2006-01-01,2023-07-31,2006-01-01,2022-04-24,2012-01-01,2022-01-01,518741.6410556516
NCUQS,Portage Romance,CA,MB,,,49.98,-98.3,262.0,America/Winnipeg,,,2007-01-01,2022-12-10,2007-01-01,2022-01-01,519725.44598453963
I0EZ7,Cypress River RCS,CA,MB,71239,,49.56,-99.07,374.0,America/Winnipeg,2020-01-01,2022-12-14,2009-09-15,2022-12-11,2009-01-01,2022-01-01,521313.02662646555
UACRV,Belmont,CA,MB,,,49.3,-99.45,482.0,America/Winnipeg,,,2000-01-01,2016-10-13,2000-01-01,2016-01-01,522416.04284492164
KFLD0,Fond Du Lac / Fond Du Lac,US,WI,,KFLD,43.7712,-88.4884,246.0,America/Chicago,1999-01-01,2023-07-31,1999-01-01,2022-04-24,2005-01-01,2022-01-01,524408.6969357808
KMNM0,Menominee / Bayside Mobile Estates,US,MI,,KMNM,45.1267,-87.6384,191.0,America/Chicago,2005-01-01,2023-07-31,2005-01-01,2022-04-24,2005-01-01,2022-01-01,524848.3765896725
